{"fetched_at":"2026-03-29T16:36:15Z","count":15609,"tles":[{"name":"KUIPER-00062","line1":"1 64522U 25134Y   26087.87900828  .00004145  00000+0  57304-3 0  9994","line2":"2 64522  51.8954 145.7618 0000598  95.3216 264.7815 14.79885942 42953","category":"Other"}]}